CTC2_L_00029001-01
1 81869U 24875VW  26037.47790509  .00000000  00000+0  00000-0 0  9996
2 81869  90.0000   0.0000 0000000   0.0000   0.0000 15.69614506    17
CTC2_L_00029001-02
1 81870U 25438AX  26037.47790509  .00000000  00000+0  00000-0 0  9994
2 81870  90.0000   0.0000 0000000   0.0000  90.0000 15.69614506    18
CTC2_L_00029001-03
1 81871U 24414WW  26037.47790509  .00000000  00000+0  00000-0 0  9998
2 81871  90.0000   0.0000 0000000   0.0000 180.0000 15.69614506    19
CTC2_L_00029001-04
1 81872U 22199A   26037.47790509  .00000000  00000+0  00000-0 0  9997
2 81872  90.0000   0.0000 0000000   0.0000 270.0000 15.69614506    10
CTC2_L_00029002-01
1 81873U 24008BE  26037.47790509  .00000000  00000+0  00000-0 0  9999
2 81873  90.0000  12.0000 0000000   0.0000  12.0000 15.69614506    18
CTC2_L_00029002-02
1 81874U 26919AX  26037.47790509  .00000000  00000+0  00000-0 0  9993
2 81874  90.0000  12.0000 0000000   0.0000 102.0000 15.69614506    19
CTC2_L_00029002-03
1 81875U 23882GE  26037.47790509  .00000000  00000+0  00000-0 0  9990
2 81875  90.0000  12.0000 0000000   0.0000 192.0000 15.69614506    19
CTC2_L_00029002-04
1 81876U 23069DR  26037.47790509  .00000000  00000+0  00000-0 0  9998
2 81876  90.0000  12.0000 0000000   0.0000 282.0000 15.69614506    10
CTC2_L_00029003-01
1 81877U 26484GI  26037.47790509  .00000000  00000+0  00000-0 0  9993
2 81877  90.0000  24.0000 0000000   0.0000  24.0000 15.69614506    18
CTC2_L_00029003-02
1 81878U 24252JR  26037.47790509  .00000000  00000+0  00000-0 0  9995
2 81878  90.0000  24.0000 0000000   0.0000 114.0000 15.69614506    19
CTC2_L_00029003-03
1 81879U 24993PQ  26037.47790509  .00000000  00000+0  00000-0 0  9998
2 81879  90.0000  24.0000 0000000   0.0000 204.0000 15.69614506    10
CTC2_L_00029003-04
1 81880U 23832AT  26037.47790509  .00000000  00000+0  00000-0 0  9991
2 81880  90.0000  24.0000 0000000   0.0000 294.0000 15.69614506    11
CTC2_L_00029004-01
1 81881U 22349SH  26037.47790509  .00000000  00000+0  00000-0 0  9994
2 81881  90.0000  36.0000 0000000   0.0000  36.0000 15.69614506    19
CTC2_L_00029004-02
1 81882U 23280MN  26037.47790509  .00000000  00000+0  00000-0 0  9990
2 81882  90.0000  36.0000 0000000   0.0000 126.0000 15.69614506    10
CTC2_L_00029004-03
1 81883U 23459CQ  26037.47790509  .00000000  00000+0  00000-0 0  9999
2 81883  90.0000  36.0000 0000000   0.0000 216.0000 15.69614506    11
CTC2_L_00029004-04
1 81884U 24625MJ  26037.47790509  .00000000  00000+0  00000-0 0  9996
2 81884  90.0000  36.0000 0000000   0.0000 306.0000 15.69614506    12
CTC2_L_00029005-01
1 81885U 23774XT  26037.47790509  .00000000  00000+0  00000-0 0  9991
2 81885  90.0000  48.0000 0000000   0.0000  48.0000 15.69614506    19
CTC2_L_00029005-02
1 81886U 22600KJ  26037.47790509  .00000000  00000+0  00000-0 0  9999
2 81886  90.0000  48.0000 0000000   0.0000 138.0000 15.69614506    10
CTC2_L_00029005-03
1 81887U 24093HU  26037.47790509  .00000000  00000+0  00000-0 0  9998
2 81887  90.0000  48.0000 0000000   0.0000 228.0000 15.69614506    11
CTC2_L_00029005-04
1 81888U 24381QW  26037.47790509  .00000000  00000+0  00000-0 0  9999
2 81888  90.0000  48.0000 0000000   0.0000 318.0000 15.69614506    12
CTC2_L_00029006-01
1 81889U 23020SP  26037.47790509  .00000000  00000+0  00000-0 0  9999
2 81889  90.0000  60.0000 0000000   0.0000  60.0000 15.69614506    11
CTC2_L_00029006-02
1 81890U 24888KJ  26037.47790509  .00000000  00000+0  00000-0 0  9994
2 81890  90.0000  60.0000 0000000   0.0000 150.0000 15.69614506    13
CTC2_L_00029006-03
1 81891U 26699AW  26037.47790509  .00000000  00000+0  00000-0 0  9997
2 81891  90.0000  60.0000 0000000   0.0000 240.0000 15.69614506    14
CTC2_L_00029006-04
1 81892U 25004PP  26037.47790509  .00000000  00000+0  00000-0 0  9997
2 81892  90.0000  60.0000 0000000   0.0000 330.0000 15.69614506    15
CTC2_L_00029007-01
1 81893U 23030QG  26037.47790509  .00000000  00000+0  00000-0 0  9995
2 81893  90.0000  72.0000 0000000   0.0000  72.0000 15.69614506    12
CTC2_L_00029007-02
1 81894U 22174W   26037.47790509  .00000000  00000+0  00000-0 0  9994
2 81894  90.0000  72.0000 0000000   0.0000 162.0000 15.69614506    13
CTC2_L_00029007-03
1 81895U 23869BK  26037.47790509  .00000000  00000+0  00000-0 0  9997
2 81895  90.0000  72.0000 0000000   0.0000 252.0000 15.69614506    14
CTC2_L_00029007-04
1 81896U 24340LL  26037.47790509  .00000000  00000+0  00000-0 0  9993
2 81896  90.0000  72.0000 0000000   0.0000 342.0000 15.69614506    15
CTC2_L_00029008-01
1 81897U 22517XF  26037.47790509  .00000000  00000+0  00000-0 0  9998
2 81897  90.0000  84.0000 0000000   0.0000  84.0000 15.69614506    12
CTC2_L_00029008-02
1 81898U 22778FB  26037.47790509  .00000000  00000+0  00000-0 0  9998
2 81898  90.0000  84.0000 0000000   0.0000 174.0000 15.69614506    13
CTC2_L_00029008-03
1 81899U 23247WU  26037.47790509  .00000000  00000+0  00000-0 0  9991
2 81899  90.0000  84.0000 0000000   0.0000 264.0000 15.69614506    14
CTC2_L_00029008-04
1 81900U 24842AF  26037.47790509  .00000000  00000+0  00000-0 0  9996
2 81900  90.0000  84.0000 0000000   0.0000 354.0000 15.69614506    17
CTC2_L_00029009-01
1 81901U 26061RU  26037.47790509  .00000000  00000+0  00000-0 0  9992
2 81901  90.0000  96.0000 0000000   0.0000  96.0000 15.69614506    14
CTC2_L_00029009-02
1 81902U 26762XN  26037.47790509  .00000000  00000+0  00000-0 0  9991
2 81902  90.0000  96.0000 0000000   0.0000 186.0000 15.69614506    15
CTC2_L_00029009-03
1 81903U 25026NY  26037.47790509  .00000000  00000+0  00000-0 0  9994
2 81903  90.0000  96.0000 0000000   0.0000 276.0000 15.69614506    16
CTC2_L_00029009-04
1 81904U 26293RF  26037.47790509  .00000000  00000+0  00000-0 0  9992
2 81904  90.0000  96.0000 0000000   0.0000   6.0000 15.69614506    18
CTC2_L_00029010-01
1 81905U 26014UP  26037.47790509  .00000000  00000+0  00000-0 0  9994
2 81905  90.0000 108.0000 0000000   0.0000 108.0000 15.69614506    16
CTC2_L_00029010-02
1 81906U 22790NU  26037.47790509  .00000000  00000+0  00000-0 0  9992
2 81906  90.0000 108.0000 0000000   0.0000 198.0000 15.69614506    16
CTC2_L_00029010-03
1 81907U 25189OG  26037.47790509  .00000000  00000+0  00000-0 0  9998
2 81907  90.0000 108.0000 0000000   0.0000 288.0000 15.69614506    17
CTC2_L_00029010-04
1 81908U 23917ZP  26037.47790509  .00000000  00000+0  00000-0 0  9996
2 81908  90.0000 108.0000 0000000   0.0000  18.0000 15.69614506    19
CTC2_L_00029011-01
1 81909U 23885IB  26037.47790509  .00000000  00000+0  00000-0 0  9991
2 81909  90.0000 120.0000 0000000   0.0000 120.0000 15.69614506    18
CTC2_L_00029011-02
1 81910U 25561L   26037.47790509  .00000000  00000+0  00000-0 0  9996
2 81910  90.0000 120.0000 0000000   0.0000 210.0000 15.69614506    10
CTC2_L_00029011-03
1 81911U 26516LR  26037.47790509  .00000000  00000+0  00000-0 0  9998
2 81911  90.0000 120.0000 0000000   0.0000 300.0000 15.69614506    11
CTC2_L_00029011-04
1 81912U 23533FJ  26037.47790509  .00000000  00000+0  00000-0 0  9995
2 81912  90.0000 120.0000 0000000   0.0000  30.0000 15.69614506    12
CTC2_L_00029012-01
1 81913U 22131OS  26037.47790509  .00000000  00000+0  00000-0 0  9999
2 81913  90.0000 132.0000 0000000   0.0000 132.0000 15.69614506    19
CTC2_L_00029012-02
1 81914U 23693ZO  26037.47790509  .00000000  00000+0  00000-0 0  9994
2 81914  90.0000 132.0000 0000000   0.0000 222.0000 15.69614506    10
CTC2_L_00029012-03
1 81915U 23209ZT  26037.47790509  .00000000  00000+0  00000-0 0  9998
2 81915  90.0000 132.0000 0000000   0.0000 312.0000 15.69614506    11
CTC2_L_00029012-04
1 81916U 25217UG  26037.47790509  .00000000  00000+0  00000-0 0  9990
2 81916  90.0000 132.0000 0000000   0.0000  42.0000 15.69614506    12
CTC2_L_00029013-01
1 81917U 25756WQ  26037.47790509  .00000000  00000+0  00000-0 0  9999
2 81917  90.0000 144.0000 0000000   0.0000 144.0000 15.69614506    19
CTC2_L_00029013-02
1 81918U 26632LE  26037.47790509  .00000000  00000+0  00000-0 0  9994
2 81918  90.0000 144.0000 0000000   0.0000 234.0000 15.69614506    10
CTC2_L_00029013-03
1 81919U 24535BQ  26037.47790509  .00000000  00000+0  00000-0 0  9995
2 81919  90.0000 144.0000 0000000   0.0000 324.0000 15.69614506    11
CTC2_L_00029013-04
1 81920U 22781IB  26037.47790509  .00000000  00000+0  00000-0 0  9998
2 81920  90.0000 144.0000 0000000   0.0000  54.0000 15.69614506    13
CTC2_L_00029014-01
1 81921U 22901B   26037.47790509  .00000000  00000+0  00000-0 0  9993
2 81921  90.0000 156.0000 0000000   0.0000 156.0000 15.69614506    10
CTC2_L_00029014-02
1 81922U 26809JG  26037.47790509  .00000000  00000+0  00000-0 0  9995
2 81922  90.0000 156.0000 0000000   0.0000 246.0000 15.69614506    11
CTC2_L_00029014-03
1 81923U 24493VT  26037.47790509  .00000000  00000+0  00000-0 0  9993
2 81923  90.0000 156.0000 0000000   0.0000 336.0000 15.69614506    12
CTC2_L_00029014-04
1 81924U 23435QS  26037.47790509  .00000000  00000+0  00000-0 0  9999
2 81924  90.0000 156.0000 0000000   0.0000  66.0000 15.69614506    13
CTC2_L_00029015-01
1 81925U 26956CF  26037.47790509  .00000000  00000+0  00000-0 0  9991
2 81925  90.0000 168.0000 0000000   0.0000 168.0000 15.69614506    10
CTC2_L_00029015-02
1 81926U 22904IL  26037.47790509  .00000000  00000+0  00000-0 0  9991
2 81926  90.0000 168.0000 0000000   0.0000 258.0000 15.69614506    11
CTC2_L_00029015-03
1 81927U 25163XC  26037.47790509  .00000000  00000+0  00000-0 0  9992
2 81927  90.0000 168.0000 0000000   0.0000 348.0000 15.69614506    12
CTC2_L_00029015-04
1 81928U 22291CA  26037.47790509  .00000000  00000+0  00000-0 0  9992
2 81928  90.0000 168.0000 0000000   0.0000  78.0000 15.69614506    13
CTC2_L_00029016-01
1 81929U 25724LK  26037.47790509  .00000000  00000+0  00000-0 0  9997
2 81929  90.0000 180.0000 0000000   0.0000 180.0000 15.69614506    12
CTC2_L_00029016-02
1 81930U 26260SJ  26037.47790509  .00000000  00000+0  00000-0 0  9995
2 81930  90.0000 180.0000 0000000   0.0000 270.0000 15.69614506    14
